{"type": "FeatureCollection", "features": [ {"type": "Feature", "properties": {"norad_id": 33905, "name": "COSMOS 2251 DEB", "group": "cosmos-2251-debris", "lat": -40.41670640371187, "lon": 131.01107484171246, "alt_km": 747.0738703907791, "timestamp": "2025-12-23T11:34:48.553588+00:00", "meta": {"OBJECT_NAME": "COSMOS 2251 DEB", "OBJECT_ID": "1993-036DJ", "EPOCH": "2025-12-22T21:25:54.794784", "MEAN_MOTION": 14.35418817, "ECCENTRICITY": 0.0058247, "INCLINATION": 73.8867, "RA_OF_ASC_NODE": 297.851, "ARG_OF_PERICENTER": 185.1914, "MEAN_ANOMALY": 231.6561, "EPHEMERIS_TYPE": 0, "CLASSIFICATION_TYPE": "U", "NORAD_CAT_ID": 33905, "ELEMENT_SET_NO": 999, "REV_AT_EPOCH": 87833, "BSTAR": 0.00052357, "MEAN_MOTION_DOT": 1.506e-05, "MEAN_MOTION_DDOT": 0}, "tle": {"line1": "1 33905U 93036DJ  25356.89299531  .00001506  00000+0  52357-3 0  9994", "line2": "2 33905  73.8867 297.8510 0058247 185.1914 231.6561 14.35418817878333"}}, "geometry": {"type": "Point", "coordinates": [131.01107484171246, -40.41670640371187]}}, {"type": "Feature", "properties": {"norad_id": 33906, "name": "COSMOS 2251 DEB", "group": "cosmos-2251-debris", "lat": -45.14487477755736, "lon": 137.7848581582013, "alt_km": 713.5050746493243, "timestamp": "2025-12-23T11:34:48.553601+00:00", "meta": {"OBJECT_NAME": "COSMOS 2251 DEB", "OBJECT_ID": "1993-036DK", "EPOCH": "2025-12-22T23:18:37.176768", "MEAN_MOTION": 14.57250273, "ECCENTRICITY": 0.0036929, "INCLINATION": 74.0308, "RA_OF_ASC_NODE": 302.0295, "ARG_OF_PERICENTER": 329.9501, "MEAN_ANOMALY": 96.9492, "EPHEMERIS_TYPE": 0, "CLASSIFICATION_TYPE": "U", "NORAD_CAT_ID": 33906, "ELEMENT_SET_NO": 999, "REV_AT_EPOCH": 88157, "BSTAR": 0.0019765, "MEAN_MOTION_DOT": 9e-05, "MEAN_MOTION_DDOT": 0}, "tle": {"line1": "1 33906U 93036DK  25356.97126362  .00009000  00000+0  19765-2 0  9997", "line2": "2 33906  74.0308 302.0295 0036929 329.9501  96.9492 14.57250273881578"}}, "geometry": {"type": "Point", "coordinates": [137.7848581582013, -45.14487477755736]}}, {"type": "Feature", "properties": {"norad_id": 33907, "name": "COSMOS 2251 DEB", "group": "cosmos-2251-debris", "lat": -65.80812303057297, "lon": -126.38365849875495, "alt_km": 876.4658926028669, "timestamp": "2025-12-23T11:34:48.553610+00:00", "meta": {"OBJECT_NAME": "COSMOS 2251 DEB", "OBJECT_ID": "1993-036DL", "EPOCH": "2025-12-22T11:29:12.563232", "MEAN_MOTION": 14.30589981, "ECCENTRICITY": 0.01118629, "INCLINATION": 74.0693, "RA_OF_ASC_NODE": 15.9616, "ARG_OF_PERICENTER": 68.4867, "MEAN_ANOMALY": 55.0515, "EPHEMERIS_TYPE": 0, "CLASSIFICATION_TYPE": "U", "NORAD_CAT_ID": 33907, "ELEMENT_SET_NO": 999, "REV_AT_EPOCH": 86719, "BSTAR": 0.0019780388, "MEAN_MOTION_DOT": 5.506e-05, "MEAN_MOTION_DDOT": 0}, "tle": {"line1": "1 33907U 93036DL  25356.47861763  .00005506  00000+0  19780-2 0  9998", "line2": "2 33907  74.0693  15.9616 0111862  68.4867  55.0515 14.30589981867199"}}, "geometry": {"type": "Point", "coordinates": [-126.38365849875495, -65.80812303057297]}}, {"type": "Feature", "properties": {"norad_id": 33908, "name": "COSMOS 2251 DEB", "group": "cosmos-2251-debris", "lat": 68.72675951674684, "lon": -41.44673477115634, "alt_km": 897.4475455453985, "timestamp": "2025-12-23T11:34:48.553620+00:00", "meta": {"OBJECT_NAME": "COSMOS 2251 DEB", "OBJECT_ID": "1993-036DM", "EPOCH": "2025-12-22T19:43:01.199424", "MEAN_MOTION": 14.0741514, "ECCENTRICITY": 0.02223827, "INCLINATION": 73.8365, "RA_OF_ASC_NODE": 187.8753, "ARG_OF_PERICENTER": 209.5233, "MEAN_ANOMALY": 149.3197, "EPHEMERIS_TYPE": 0, "CLASSIFICATION_TYPE": "U", "NORAD_CAT_ID": 33908, "ELEMENT_SET_NO": 999, "REV_AT_EPOCH": 85615, "BSTAR": 0.0021897323, "MEAN_MOTION_DOT": 4.592e-05, "MEAN_MOTION_DDOT": 0}, "tle": {"line1": "1 33908U 93036DM  25356.82154166  .00004592  00000+0  21897-2 0  9996", "line2": "2 33908  73.8365 187.8753 0222382 209.5233 149.3197 14.07415140856155"}}, "geometry": {"type": "Point", "coordinates": [-41.44673477115634, 68.72675951674684]}}, {"type": "Feature", "properties": {"norad_id": 33911, "name": "COSMOS 2251 DEB", "group": "cosmos-2251-debris", "lat": -31.77870340715891, "lon": 130.75358165520709, "alt_km": 653.4059672650055, "timestamp": "2025-12-23T11:34:48.553629+00:00", "meta": {"OBJECT_NAME": "COSMOS 2251 DEB", "OBJECT_ID": "1993-036DQ", "EPOCH": "2025-12-22T20:07:55.852896", "MEAN_MOTION": 14.75092709, "ECCENTRICITY": 0.00139875, "INCLINATION": 74.0904, "RA_OF_ASC_NODE": 142.1847, "ARG_OF_PERICENTER": 75.4181, "MEAN_ANOMALY": 74.9634, "EPHEMERIS_TYPE": 0, "CLASSIFICATION_TYPE": "U", "NORAD_CAT_ID": 33911, "ELEMENT_SET_NO": 999, "REV_AT_EPOCH": 88793, "BSTAR": 0.0021527339, "MEAN_MOTION_DOT": 0.00014537, "MEAN_MOTION_DDOT": 0}, "tle": {"line1": "1 33911U 93036DQ  25356.83884089  .00014537  00000+0  21527-2 0  9995", "line2": "2 33911  74.0904 142.1847 0013987  75.4181  74.9634 14.75092709887936"}}, "geometry": {"type": "Point", "coordinates": [130.75358165520709, -31.77870340715891]}}, {"type": "Feature", "properties": {"norad_id": 33912, "name": "COSMOS 2251 DEB", "group": "cosmos-2251-debris", "lat": 40.96743329450968, "lon": -176.11725450266587, "alt_km": 722.9318317826865, "timestamp": "2025-12-23T11:34:48.553638+00:00", "meta": {"OBJECT_NAME": "COSMOS 2251 DEB", "OBJECT_ID": "1993-036DR", "EPOCH": "2025-12-22T22:44:22.259040", "MEAN_MOTION": 14.51949848, "ECCENTRICITY": 0.0011308, "INCLINATION": 74.0327, "RA_OF_ASC_NODE": 170.4954, "ARG_OF_PERICENTER": 249.4108, "MEAN_ANOMALY": 238.1547, "EPHEMERIS_TYPE": 0, "CLASSIFICATION_TYPE": "U", "NORAD_CAT_ID": 33912, "ELEMENT_SET_NO": 999, "REV_AT_EPOCH": 88581, "BSTAR": 0.00079778, "MEAN_MOTION_DOT": 3.196e-05, "MEAN_MOTION_DDOT": 0}, "tle": {"line1": "1 33912U 93036DR  25356.94747985  .00003196  00000+0  79778-3 0  9992", "line2": "2 33912  74.0327 170.4954 0011308 249.4108 238.1547 14.51949848885817"}}, "geometry": {"type": "Point", "coordinates": [-176.11725450266587, 40.96743329450968]}}, {"type": "Feature", "properties": {"norad_id": 33913, "name": "COSMOS 2251 DEB", "group": "cosmos-2251-debris", "lat": -2.7611963320546216, "lon": 162.72621537367849, "alt_km": 735.2065113540293, "timestamp": "2025-12-23T11:34:48.553648+00:00", "meta": {"OBJECT_NAME": "COSMOS 2251 DEB", "OBJECT_ID": "1993-036DS", "EPOCH": "2025-12-22T17:26:02.190336", "MEAN_MOTION": 14.48524132, "ECCENTRICITY": 0.00481438, "INCLINATION": 74.0321, "RA_OF_ASC_NODE": 164.9337, "ARG_OF_PERICENTER": 265.6181, "MEAN_ANOMALY": 109.8911, "EPHEMERIS_TYPE": 0, "CLASSIFICATION_TYPE": "U", "NORAD_CAT_ID": 33913, "ELEMENT_SET_NO": 999, "REV_AT_EPOCH": 88602, "BSTAR": 0.00048788342, "MEAN_MOTION_DOT": 1.831e-05, "MEAN_MOTION_DDOT": 0}, "tle": {"line1": "1 33913U 93036DS  25356.72641424  .00001831  00000+0  48788-3 0  9991", "line2": "2 33913  74.0321 164.9337 0048143 265.6181 109.8911 14.48524132886027"}}, "geometry": {"type": "Point", "coordinates": [162.72621537367849, -2.7611963320546216]}}, {"type": "Feature", "properties": {"norad_id": 33914, "name": "COSMOS 2251 DEB", "group": "cosmos-2251-debris", "lat": -63.183230195863686, "lon": -148.26337579467062, "alt_km": 1190.1293342397912, "timestamp": "2025-12-23T11:34:48.553657+00:00", "meta": {"OBJECT_NAME": "COSMOS 2251 DEB", "OBJECT_ID": "1993-036DT", "EPOCH": "2025-12-23T01:55:15.993408", "MEAN_MOTION": 13.71990699, "ECCENTRICITY": 0.0300809, "INCLINATION": 74.0911, "RA_OF_ASC_NODE": 358.0537, "ARG_OF_PERICENTER": 98.5842, "MEAN_ANOMALY": 320.6967, "EPHEMERIS_TYPE": 0, "CLASSIFICATION_TYPE": "U", "NORAD_CAT_ID": 33914, "ELEMENT_SET_NO": 999, "REV_AT_EPOCH": 84223, "BSTAR": 0.00023617, "MEAN_MOTION_DOT": 2.77e-06, "MEAN_MOTION_DDOT": 0}, "tle": {"line1": "1 33914U 93036DT  25357.08004622  .00000277  00000+0  23617-3 0  9992", "line2": "2 33914  74.0911 358.0537 0300809  98.5842 320.6967 13.71990699842237"}}, "geometry": {"type": "Point", "coordinates": [-148.26337579467062, -63.183230195863686]}}, {"type": "Feature", "properties": {"norad_id": 33915, "name": "COSMOS 2251 DEB", "group": "cosmos-2251-debris", "lat": -67.37903548582699, "lon": -28.94626278551572, "alt_km": 855.975531096803, "timestamp": "2025-12-23T11:34:48.553666+00:00", "meta": {"OBJECT_NAME": "COSMOS 2251 DEB", "OBJECT_ID": "1993-036DU", "EPOCH": "2025-12-23T00:18:33.427296", "MEAN_MOTION": 14.35104776, "ECCENTRICITY": 0.010402, "INCLINATION": 74.043, "RA_OF_ASC_NODE": 15.2793, "ARG_OF_PERICENTER": 105.0476, "MEAN_ANOMALY": 276.0148, "EPHEMERIS_TYPE": 0, "CLASSIFICATION_TYPE": "U", "NORAD_CAT_ID": 33915, "ELEMENT_SET_NO": 999, "REV_AT_EPOCH": 87905, "BSTAR": 0.00032733, "MEAN_MOTION_DOT": 9.67e-06, "MEAN_MOTION_DDOT": 0}, "tle": {"line1": "1 33915U 93036DU  25357.01288689  .00000967  00000+0  32733-3 0  9998", "line2": "2 33915  74.0430  15.2793 0104020 105.0476 276.0148 14.35104776879053"}}, "geometry": {"type": "Point", "coordinates": [-28.94626278551572, -67.37903548582699]}}, {"type": "Feature", "properties": {"norad_id": 33916, "name": "COSMOS 2251 DEB", "group": "cosmos-2251-debris", "lat": 20.561865614808937, "lon": 29.094548130265657, "alt_km": 1240.960013379552, "timestamp": "2025-12-23T11:34:48.553685+00:00", "meta": {"OBJECT_NAME": "COSMOS 2251 DEB", "OBJECT_ID": "1993-036DV", "EPOCH": "2025-12-23T02:59:46.696128", "MEAN_MOTION": 13.68624492, "ECCENTRICITY": 0.0324883, "INCLINATION": 74.052, "RA_OF_ASC_NODE": 23.5246, "ARG_OF_PERICENTER": 193.4447, "MEAN_ANOMALY": 227.1168, "EPHEMERIS_TYPE": 0, "CLASSIFICATION_TYPE": "U", "NORAD_CAT_ID": 33916, "ELEMENT_SET_NO": 999, "REV_AT_EPOCH": 84033, "BSTAR": 0.00032026, "MEAN_MOTION_DOT": 3.75e-06, "MEAN_MOTION_DDOT": 0}, "tle": {"line1": "1 33916U 93036DV  25357.12484602  .00000375  00000+0  32026-3 0  9992", "line2": "2 33916  74.0520  23.5246 0324883 193.4447 227.1168 13.68624492840334"}}, "geometry": {"type": "Point", "coordinates": [29.094548130265657, 20.561865614808937]}}]}